{
  "type": "FeatureCollection",
  "features": [
    {
      "type": "Feature",
      "properties": {
        "norad_id": 34784,
        "name": "COSMOS 2251 DEB",
        "group": "cosmos-2251-debris",
        "lat": 22.89033453600045,
        "lon": 120.67063845617618,
        "alt_km": 663.7139530262275,
        "timestamp": "2025-12-21T11:31:43.254612+00:00",
        "meta_object_name": "COSMOS 2251 DEB",
        "meta_object_id": "1993-036AAM",
        "meta_epoch": "2025-12-19T22:39:42.145920",
        "meta_mean_motion": 14.60808995,
        "meta_eccentricity": 0.0049222,
        "meta_inclination": 74.0073,
        "meta_ra_of_asc_node": 310.5647,
        "meta_arg_of_pericenter": 117.7322,
        "meta_mean_anomaly": 242.885,
        "meta_ephemeris_type": 0,
        "meta_classification_type": "U",
        "meta_norad_cat_id": 34784,
        "meta_element_set_no": 999,
        "meta_rev_at_epoch": 88640,
        "meta_bstar": 0.00031795,
        "meta_mean_motion_dot": 1.549e-05,
        "meta_mean_motion_ddot": 0,
        "tle_line1": "1 34784U 93036AAM 25353.94423780  .00001549  00000+0  31795-3 0  9998",
        "tle_line2": "2 34784  74.0073 310.5647 0049222 117.7322 242.8850 14.60808995886402"
      },
      "geometry": {
        "type": "Point",
        "coordinates": [
          120.67063845617618,
          22.89033453600045
        ]
      }
    },
    {
      "type": "Feature",
      "properties": {
        "norad_id": 34790,
        "name": "COSMOS 2251 DEB",
        "group": "cosmos-2251-debris",
        "lat": -42.30034262464499,
        "lon": 63.04996165667505,
        "alt_km": 783.0127235154841,
        "timestamp": "2025-12-21T11:31:43.254622+00:00",
        "meta_object_name": "COSMOS 2251 DEB",
        "meta_object_id": "1993-036AAT",
        "meta_epoch": "2025-12-20T03:10:44.601024",
        "meta_mean_motion": 14.24656104,
        "meta_eccentricity": 0.01005224,
        "meta_inclination": 74.0538,
        "meta_ra_of_asc_node": 230.3962,
        "meta_arg_of_pericenter": 290.5432,
        "meta_mean_anomaly": 224.5062,
        "meta_ephemeris_type": 0,
        "meta_classification_type": "U",
        "meta_norad_cat_id": 34790,
        "meta_element_set_no": 999,
        "meta_rev_at_epoch": 86678,
        "meta_bstar": 0.00041671452,
        "meta_mean_motion_dot": 9.95e-06,
        "meta_mean_motion_ddot": 0,
        "tle_line1": "1 34790U 93036AAT 25354.13246066  .00000995  00000+0  41671-3 0  9995",
        "tle_line2": "2 34790  74.0538 230.3962 0100522 290.5432 224.5062 14.24656104866781"
      },
      "geometry": {
        "type": "Point",
        "coordinates": [
          63.04996165667505,
          -42.30034262464499
        ]
      }
    },
    {
      "type": "Feature",
      "properties": {
        "norad_id": 34792,
        "name": "COSMOS 2251 DEB",
        "group": "cosmos-2251-debris",
        "lat": 70.60631462364086,
        "lon": -152.37555617381534,
        "alt_km": 707.4909311611018,
        "timestamp": "2025-12-21T11:31:43.254632+00:00",
        "meta_object_name": "COSMOS 2251 DEB",
        "meta_object_id": "1993-036AAV",
        "meta_epoch": "2025-12-20T12:20:32.087328",
        "meta_mean_motion": 14.56013291,
        "meta_eccentricity": 0.0012416,
        "meta_inclination": 74.0171,
        "meta_ra_of_asc_node": 154.9529,
        "meta_arg_of_pericenter": 249.388,
        "meta_mean_anomaly": 167.642,
        "meta_ephemeris_type": 0,
        "meta_classification_type": "U",
        "meta_norad_cat_id": 34792,
        "meta_element_set_no": 999,
        "meta_rev_at_epoch": 87763,
        "meta_bstar": 0.00068570227,
        "meta_mean_motion_dot": 2.993e-05,
        "meta_mean_motion_ddot": 0,
        "tle_line1": "1 34792U 93036AAV 25354.51426027  .00002993  00000+0  68570-3 0  9993",
        "tle_line2": "2 34792  74.0171 154.9529 0012416 249.3880 167.6420 14.56013291877639"
      },
      "geometry": {
        "type": "Point",
        "coordinates": [
          -152.37555617381534,
          70.60631462364086
        ]
      }
    },
    {
      "type": "Feature",
      "properties": {
        "norad_id": 34793,
        "name": "COSMOS 2251 DEB",
        "group": "cosmos-2251-debris",
        "lat": 31.080002488403697,
        "lon": -115.82233095406549,
        "alt_km": 724.926063085938,
        "timestamp": "2025-12-21T11:31:43.254643+00:00",
        "meta_object_name": "COSMOS 2251 DEB",
        "meta_object_id": "1993-036AAW",
        "meta_epoch": "2025-12-20T20:56:39.901920",
        "meta_mean_motion": 14.38656472,
        "meta_eccentricity": 0.0050644,
        "meta_inclination": 74.0021,
        "meta_ra_of_asc_node": 235.3419,
        "meta_arg_of_pericenter": 27.3695,
        "meta_mean_anomaly": 99.1443,
        "meta_ephemeris_type": 0,
        "meta_classification_type": "U",
        "meta_norad_cat_id": 34793,
        "meta_element_set_no": 999,
        "meta_rev_at_epoch": 87447,
        "meta_bstar": 0.00017055,
        "meta_mean_motion_dot": 5.04e-06,
        "meta_mean_motion_ddot": 0,
        "tle_line1": "1 34793U 93036AAW 25354.87268405  .00000504  00000+0  17055-3 0  9995",
        "tle_line2": "2 34793  74.0021 235.3419 0050644  27.3695  99.1443 14.38656472874476"
      },
      "geometry": {
        "type": "Point",
        "coordinates": [
          -115.82233095406549,
          31.080002488403697
        ]
      }
    },
    {
      "type": "Feature",
      "properties": {
        "norad_id": 34796,
        "name": "COSMOS 2251 DEB",
        "group": "cosmos-2251-debris",
        "lat": 72.74698139586691,
        "lon": -92.80051407459493,
        "alt_km": 779.3862378037466,
        "timestamp": "2025-12-21T11:31:43.254654+00:00",
        "meta_object_name": "COSMOS 2251 DEB",
        "meta_object_id": "1993-036AAZ",
        "meta_epoch": "2025-12-20T20:18:01.715616",
        "meta_mean_motion": 14.48723877,
        "meta_eccentricity": 0.01002858,
        "meta_inclination": 74.0288,
        "meta_ra_of_asc_node": 201.1462,
        "meta_arg_of_pericenter": 301.4572,
        "meta_mean_anomaly": 73.4002,
        "meta_ephemeris_type": 0,
        "meta_classification_type": "U",
        "meta_norad_cat_id": 34796,
        "meta_element_set_no": 999,
        "meta_rev_at_epoch": 88145,
        "meta_bstar": 0.00035757486,
        "meta_mean_motion_dot": 1.406e-05,
        "meta_mean_motion_ddot": 0,
        "tle_line1": "1 34796U 93036AAZ 25354.84585319  .00001406  00000+0  35757-3 0  9992",
        "tle_line2": "2 34796  74.0288 201.1462 0100285 301.4572  73.4002 14.48723877881457"
      },
      "geometry": {
        "type": "Point",
        "coordinates": [
          -92.80051407459493,
          72.74698139586691
        ]
      }
    },
    {
      "type": "Feature",
      "properties": {
        "norad_id": 34797,
        "name": "COSMOS 2251 DEB",
        "group": "cosmos-2251-debris",
        "lat": 21.716286686399005,
        "lon": 90.27223024849411,
        "alt_km": 798.6944598589644,
        "timestamp": "2025-12-21T11:31:43.254664+00:00",
        "meta_object_name": "COSMOS 2251 DEB",
        "meta_object_id": "1993-036ABA",
        "meta_epoch": "2025-12-18T13:32:08.695392",
        "meta_mean_motion": 14.42903821,
        "meta_eccentricity": 0.00713736,
        "meta_inclination": 73.9783,
        "meta_ra_of_asc_node": 89.1324,
        "meta_arg_of_pericenter": 201.7042,
        "meta_mean_anomaly": 158.1087,
        "meta_ephemeris_type": 0,
        "meta_classification_type": "U",
        "meta_norad_cat_id": 34797,
        "meta_element_set_no": 999,
        "meta_rev_at_epoch": 87499,
        "meta_bstar": 0.0016985088,
        "meta_mean_motion_dot": 5.83e-05,
        "meta_mean_motion_ddot": 0,
        "tle_line1": "1 34797U 93036ABA 25352.56398953  .00005830  00000+0  16985-2 0  9992",
        "tle_line2": "2 34797  73.9783  89.1324 0071373 201.7042 158.1087 14.42903821874994"
      },
      "geometry": {
        "type": "Point",
        "coordinates": [
          90.27223024849411,
          21.716286686399005
        ]
      }
    },
    {
      "type": "Feature",
      "properties": {
        "norad_id": 34814,
        "name": "COSMOS 2251 DEB",
        "group": "cosmos-2251-debris",
        "lat": 1.5181651038792896,
        "lon": 128.78875474528206,
        "alt_km": 733.3635919381877,
        "timestamp": "2025-12-21T11:31:43.254675+00:00",
        "meta_object_name": "COSMOS 2251 DEB",
        "meta_object_id": "1993-036ABD",
        "meta_epoch": "2025-12-20T15:30:26.921088",
        "meta_mean_motion": 14.36924529,
        "meta_eccentricity": 0.0055669,
        "meta_inclination": 73.8958,
        "meta_ra_of_asc_node": 310.7738,
        "meta_arg_of_pericenter": 198.7366,
        "meta_mean_anomaly": 346.1434,
        "meta_ephemeris_type": 0,
        "meta_classification_type": "U",
        "meta_norad_cat_id": 34814,
        "meta_element_set_no": 999,
        "meta_rev_at_epoch": 87446,
        "meta_bstar": 0.00047694,
        "meta_mean_motion_dot": 1.41e-05,
        "meta_mean_motion_ddot": 0,
        "tle_line1": "1 34814U 93036ABD 25354.64614492  .00001410  00000+0  47694-3 0  9994",
        "tle_line2": "2 34814  73.8958 310.7738 0055669 198.7366 346.1434 14.36924529874461"
      },
      "geometry": {
        "type": "Point",
        "coordinates": [
          128.78875474528206,
          1.5181651038792896
        ]
      }
    }
  ]
}